DMSP 5D-3 F16 (USA 172) 
1 28054U 03048A   26167.30635345 -.00000006  00000+0  20324-4 0  9996
2 28054  98.9891 191.1289 0007720 142.5129 230.7124 14.14483140169360
METEOSAT-9 (MSG-2)      
1 28912U 05049B   26166.83834346  .00000118  00000+0  00000+0 0  9998
2 28912   9.3585  54.1816 0001578 343.5552 213.8225  1.00271428  6988
DMSP 5D-3 F17 (USA 191) 
1 29522U 06050A   26167.25044938  .00000013  00000+0  29181-4 0  9996
2 29522  98.7378 173.8397 0011191  61.8613 298.3690 14.14993026 12290
FENGYUN 3A              
1 32958U 08026A   26167.27201069  .00000046  00000+0  42427-4 0  9994
2 32958  98.6883 108.1222 0009553 126.0638 234.1425 14.19570933935274
GOES 14                 
1 35491U 09033A   26167.21400983 -.00000289  00000+0  00000+0 0  9994
2 35491   1.6879  83.0537 0001717  11.0805  29.7875  1.00111069  6588
DMSP 5D-3 F18 (USA 210) 
1 35951U 09057A   26167.29248265  .00000221  00000+0  13730-3 0  9995
2 35951  98.9038 148.0635 0009882 252.4302 107.5792 14.14896298859469
EWS-G2 (GOES 15)        
1 36411U 10008A   26167.17525350  .00000016  00000+0  00000+0 0  9999
2 36411   1.2753  82.8735 0005413  42.3765 266.0013  1.00275834 59628
COMS 1                  
1 36744U 10032A   26167.02256648  .00000042  00000+0  00000+0 0  9999
2 36744   4.8022  75.3676 0011457  11.7530 263.3984  0.99162472 51079
FENGYUN 3B              
1 37214U 10059A   26167.31368616 -.00000171  00000+0 -64921-4 0  9994
2 37214  98.9621 213.3244 0021845 186.4654 234.5070 14.14840995807301
SUOMI NPP               
1 37849U 11061A   26167.28325244  .00000055  00000+0  46938-4 0  9995
2 37849  98.7953 108.1655 0001587   9.0005 351.1199 14.19517179758313
METEOSAT-10 (MSG-3)     
1 38552U 12035B   26166.90073081 -.00000006  00000+0  00000+0 0  9998
2 38552   4.6688  61.0268 0001452 328.0735 199.6782  1.00276584 50842
METOP-B                 
1 38771U 12049A   26167.27453775  .00000094  00000+0  62920-4 0  9999
2 38771  98.6505 218.7919 0002289  21.9428 338.1847 14.21432528713136
INSAT-3D                
1 39216U 13038B   26166.92627412 -.00000340  00000+0  00000+0 0  9996
2 39216   1.9231  82.5542 0000550 308.4460 336.1773  1.00269680 47069
FENGYUN 3C              
1 39260U 13052A   26167.26640622  .00000067  00000+0  55068-4 0  9991
2 39260  98.4986 141.1835 0015303  30.1751 330.0302 14.15754837658430
METEOR-M 2              
1 40069U 14037A   26167.23053266  .00000007  00000+0  22642-4 0  9999
2 40069  98.5108 143.0029 0006825  46.8131 313.3616 14.21461018619181
HIMAWARI-8              
1 40267U 14060A   26167.30120281 -.00000276  00000+0  00000+0 0  9993
2 40267   0.0156 353.3646 0000974  94.9624  65.3437  1.00271849 42755
FENGYUN 2G              
1 40367U 14090A   26166.92960939 -.00000306  00000+0  00000+0 0  9990
2 40367   5.6350  72.8268 0004081 156.1097 109.6095  1.00272763 41986
METEOSAT-11 (MSG-4)     
1 40732U 15034A   26167.11641705  .00000063  00000+0  00000+0 0  9993
2 40732   3.1987  71.1166 0001757  11.0403 233.7798  1.00280036  7205
ELEKTRO-L 2             
1 41105U 15074A   26166.96906061 -.00000122  00000+0  00000+0 0  9990
2 41105   6.6903  70.5362 0001047 244.2830 283.7788  1.00270394 38498
SENTINEL-3A             
1 41335U 16011A   26167.30486742  .00000097  00000+0  58132-4 0  9999
2 41335  98.6249 234.7012 0001395 102.3557 257.7780 14.26739781537937
INSAT-3DR               
1 41752U 16054A   26167.12924378 -.00000077  00000+0  00000+0 0  9996
2 41752   0.1039  86.4858 0010630 187.3768 111.0409  1.00270809 35802
HIMAWARI-9              
1 41836U 16064A   26167.30120255 -.00000276  00000+0  00000+0 0  9993
2 41836   0.0212 275.4820 0000873 212.4750  25.8119  1.00270257 35206
GOES 16                 
1 41866U 16071A   26167.20878065 -.00000091  00000+0  00000+0 0  9997
2 41866   0.3389  85.5174 0000215 303.6917 205.7415  1.00270954 35096
FENGYUN 4A              
1 41882U 16077A   26166.99644729 -.00000358  00000+0  00000+0 0  9990
2 41882   2.3189  80.2906 0008732 153.3687 153.1019  1.00269112 34915
CYGFM05                 
1 41884U 16078A   26166.70441262  .00019899  00000+0  27030-3 0  9994
2 41884  34.9572 270.4087 0006844 136.1338 223.9930 15.56617530528521
CYGFM04                 
1 41885U 16078B   26166.61568708  .00025374  00000+0  28651-3 0  9995
2 41885  34.9319 238.7656 0006476 180.9512 179.1202 15.61441990528752
CYGFM02                 
1 41886U 16078C   26166.87462294  .00027394  00000+0  27484-3 0  9994
2 41886  34.9396 231.6122 0007525 184.3737 175.6924 15.64432101528963
CYGFM01                 
1 41887U 16078D   26166.69377457  .00021240  00000+0  28123-3 0  9996
2 41887  34.9401 271.5487 0006627 129.5981 230.5329 15.57292832528475
CYGFM08                 
1 41888U 16078E   26166.91179512  .00023574  00000+0  28176-3 0  9994
2 41888  34.9426 249.7155 0008217 165.1852 194.9115 15.59963222528771
CYGFM07                 
1 41890U 16078G   26166.61504958  .00023429  00000+0  27923-3 0  9998
2 41890  34.9439 240.0344 0006892 179.5306 180.5427 15.60051101528753
CYGFM03                 
1 41891U 16078H   26166.90600628  .00023549  00000+0  28065-3 0  9993
2 41891  34.9394 240.0351 0006372 170.2723 189.8127 15.60055421528776
